{
    "links": {
        "self": "http://www.neowsapp.com/rest/v1/neo/3765639?api_key=iIulBulltgU6a56xZRHN4H3l9WmuAYTsLGpBGhQ2"
    },
    "id": "3765639",
    "neo_reference_id": "3765639",
    "name": "(2016 XC2)",
    "designation": "2016 XC2",
    "nasa_jpl_url": "http://ssd.jpl.nasa.gov/sbdb.cgi?sstr=3765639",
    "absolute_magnitude_h": 23.6,
    "estimated_diameter": {
        "kilometers": {
            "estimated_diameter_min": 0.0506471459,
            "estimated_diameter_max": 0.1132504611
        },
        "meters": {
            "estimated_diameter_min": 50.6471458835,
            "estimated_diameter_max": 113.2504610618
        },
        "miles": {
            "estimated_diameter_min": 0.0314706677,
            "estimated_diameter_max": 0.0703705522
        },
        "feet": {
            "estimated_diameter_min": 166.1651821003,
            "estimated_diameter_max": 371.5566426699
        }
    },
    "is_potentially_hazardous_asteroid": false,
    "close_approach_data": [
        {
            "close_approach_date": "2016-12-15",
            "close_approach_date_full": "2016-Dec-15 15:10",
            "epoch_date_close_approach": 1481814600000,
            "relative_velocity": {
                "kilometers_per_second": "31.794930978",
                "kilometers_per_hour": "114461.7515207528",
                "miles_per_hour": "71122.0811046589"
            },
            "miss_distance": {
                "astronomical": "0.1243025386",
                "lunar": "48.3536875154",
                "kilometers": "18595395.010152782",
                "miles": "11554642.6634091116"
            },
            "orbiting_body": "Earth"
        }
    ],
    "orbital_data": {
        "orbit_id": "4",
        "orbit_determination_date": "2017-04-06 08:21:38",
        "first_observation_date": "2016-12-04",
        "last_observation_date": "2016-12-10",
        "data_arc_in_days": 6,
        "observations_used": 47,
        "orbit_uncertainty": "9",
        "minimum_orbit_intersection": ".0520152",
        "jupiter_tisserand_invariant": "2.804",
        "epoch_osculation": "2457727.5",
        "eccentricity": ".897727645777649",
        "semi_major_axis": "2.274774800281029",
        "inclination": "27.47052824724691",
        "ascending_node_longitude": "253.5808222237225",
        "orbital_period": "1253.15860233234",
        "perihelion_distance": ".2326465741504192",
        "perihelion_argument": "314.7134975891403",
        "aphelion_distance": "4.316903026411638",
        "perihelion_time": "2457779.222098574853",
        "mean_anomaly": "345.1415810797674",
        "mean_motion": ".2872740923056181",
        "equinox": "J2000",
        "orbit_class": {
            "orbit_class_type": "APO",
            "orbit_class_description": "Near-Earth asteroid orbits which cross the Earth’s orbit similar to that of 1862 Apollo",
            "orbit_class_range": "a (semi-major axis) > 1.0 AU; q (perihelion) < 1.017 AU"
        }
    },
    "is_sentry_object": false
}